[{"OBJECT_NAME":"TIANTONG-1 3","OBJECT_ID":"2021-003A","EPOCH":"2022-08-18T16:56:47.720832","MEAN_MOTION":1.00271862,"ECCENTRICITY":0.0003888,"INCLINATION":4.2969,"RA_OF_ASC_NODE":308.1581,"ARG_OF_PERICENTER":194.1192,"MEAN_ANOMALY":160.4715,"EPHEMERIS_TYPE":0,"CLASSIFICATION_TYPE":"U","NORAD_CAT_ID":47321,"ELEMENT_SET_NO":999,"REV_AT_EPOCH":594,"BSTAR":0,"MEAN_MOTION_DOT":-1.58e-6,"MEAN_MOTION_DDOT":0},{"OBJECT_NAME":"TJS-6","OBJECT_ID":"2021-010A","EPOCH":"2022-08-18T21:24:14.349600","MEAN_MOTION":1.00267408,"ECCENTRICITY":3.07e-5,"INCLINATION":0.5113,"RA_OF_ASC_NODE":285.1698,"ARG_OF_PERICENTER":269.2537,"MEAN_ANOMALY":272.5365,"EPHEMERIS_TYPE":0,"CLASSIFICATION_TYPE":"U","NORAD_CAT_ID":47613,"ELEMENT_SET_NO":999,"REV_AT_EPOCH":579,"BSTAR":0,"MEAN_MOTION_DOT":3.7e-7,"MEAN_MOTION_DDOT":0},{"OBJECT_NAME":"SHIYAN 9 (SY-9)","OBJECT_ID":"2021-019A","EPOCH":"2022-08-18T18:35:20.915232","MEAN_MOTION":1.00277631,"ECCENTRICITY":0.0013011,"INCLINATION":19.4522,"RA_OF_ASC_NODE":320.3969,"ARG_OF_PERICENTER":353.6624,"MEAN_ANOMALY":79.4763,"EPHEMERIS_TYPE":0,"CLASSIFICATION_TYPE":"U","NORAD_CAT_ID":47851,"ELEMENT_SET_NO":999,"REV_AT_EPOCH":1010,"BSTAR":0.0001,"MEAN_MOTION_DOT":-2.32e-6,"MEAN_MOTION_DDOT":0},{"OBJECT_NAME":"SBIRS GEO-5 (USA 315)","OBJECT_ID":"2021-042A","EPOCH":"2022-08-18T22:42:42.626880","MEAN_MOTION":1.00273078,"ECCENTRICITY":0.0002564,"INCLINATION":7.2445,"RA_OF_ASC_NODE":326.0806,"ARG_OF_PERICENTER":177.1386,"MEAN_ANOMALY":185.6187,"EPHEMERIS_TYPE":0,"CLASSIFICATION_TYPE":"U","NORAD_CAT_ID":48618,"ELEMENT_SET_NO":999,"REV_AT_EPOCH":471,"BSTAR":0,"MEAN_MOTION_DOT":1.16e-6,"MEAN_MOTION_DDOT":0},{"OBJECT_NAME":"FENGYUN 4B","OBJECT_ID":"2021-047A","EPOCH":"2022-08-18T19:27:50.227200","MEAN_MOTION":1.00275908,"ECCENTRICITY":0.0001887,"INCLINATION":0.1228,"RA_OF_ASC_NODE":84.5939,"ARG_OF_PERICENTER":291.7307,"MEAN_ANOMALY":15.9495,"EPHEMERIS_TYPE":0,"CLASSIFICATION_TYPE":"U","NORAD_CAT_ID":48808,"ELEMENT_SET_NO":999,"REV_AT_EPOCH":455,"BSTAR":0,"MEAN_MOTION_DOT":-3.29e-6,"MEAN_MOTION_DDOT":0},{"OBJECT_NAME":"SXM-8","OBJECT_ID":"2021-049A","EPOCH":"2022-08-19T01:18:28.423296","MEAN_MOTION":1.00273144,"ECCENTRICITY":0.0001685,"INCLINATION":0.0428,"RA_OF_ASC_NODE":287.3204,"ARG_OF_PERICENTER":66.7906,"MEAN_ANOMALY":267.6991,"EPHEMERIS_TYPE":0,"CLASSIFICATION_TYPE":"U","NORAD_CAT_ID":48838,"ELEMENT_SET_NO":999,"REV_AT_EPOCH":460,"BSTAR":0,"MEAN_MOTION_DOT":-2.12e-6,"MEAN_MOTION_DDOT":0},{"OBJECT_NAME":"TIANLIAN 1-05","OBJECT_ID":"2021-063A","EPOCH":"2022-08-18T17:35:42.857952","MEAN_MOTION":1.00273066,"ECCENTRICITY":0.0004151,"INCLINATION":2.0137,"RA_OF_ASC_NODE":282.4628,"ARG_OF_PERICENTER":240.9243,"MEAN_ANOMALY":84.3546,"EPHEMERIS_TYPE":0,"CLASSIFICATION_TYPE":"U","NORAD_CAT_ID":49011,"ELEMENT_SET_NO":999,"REV_AT_EPOCH":405,"BSTAR":0,"MEAN_MOTION_DOT":1.02e-6,"MEAN_MOTION_DDOT":0},{"OBJECT_NAME":"STAR ONE D2","OBJECT_ID":"2021-069A","EPOCH":"2022-08-18T06:53:29.643360","MEAN_MOTION":1.00273385,"ECCENTRICITY":0.0002764,"INCLINATION":0.0196,"RA_OF_ASC_NODE":115.4374,"ARG_OF_PERICENTER":46.3749,"MEAN_ANOMALY":198.187,"EPHEMERIS_TYPE":0,"CLASSIFICATION_TYPE":"U","NORAD_CAT_ID":49055,"ELEMENT_SET_NO":999,"REV_AT_EPOCH":388,"BSTAR":0,"MEAN_MOTION_DOT":-2.73e-6,"MEAN_MOTION_DDOT":0},{"OBJECT_NAME":"EUTELSAT QUANTUM","OBJECT_ID":"2021-069B","EPOCH":"2022-08-19T01:56:31.259040","MEAN_MOTION":1.00269956,"ECCENTRICITY":0.0001671,"INCLINATION":0.0385,"RA_OF_ASC_NODE":299.8346,"ARG_OF_PERICENTER":211.7681,"MEAN_ANOMALY":252.6335,"EPHEMERIS_TYPE":0,"CLASSIFICATION_TYPE":"U","NORAD_CAT_ID":49056,"ELEMENT_SET_NO":999,"REV_AT_EPOCH":390,"BSTAR":0,"MEAN_MOTION_DOT":1.2e-6,"MEAN_MOTION_DDOT":0},{"OBJECT_NAME":"CHINASAT 2E (ZX 2E)","OBJECT_ID":"2021-071A","EPOCH":"2022-08-19T04:26:27.482784","MEAN_MOTION":1.00272756,"ECCENTRICITY":3.64e-5,"INCLINATION":0.0488,"RA_OF_ASC_NODE":277.7705,"ARG_OF_PERICENTER":117.6594,"MEAN_ANOMALY":96.7551,"EPHEMERIS_TYPE":0,"CLASSIFICATION_TYPE":"U","NORAD_CAT_ID":49062,"ELEMENT_SET_NO":999,"REV_AT_EPOCH":403,"BSTAR":0,"MEAN_MOTION_DOT":-2.98e-6,"MEAN_MOTION_DDOT":0},{"OBJECT_NAME":"TJS-7","OBJECT_ID":"2021-077A","EPOCH":"2022-08-18T17:18:42.766848","MEAN_MOTION":1.00270001,"ECCENTRICITY":8.31e-5,"INCLINATION":0.1565,"RA_OF_ASC_NODE":257.6241,"ARG_OF_PERICENTER":224.0324,"MEAN_ANOMALY":251.5954,"EPHEMERIS_TYPE":0,"CLASSIFICATION_TYPE":"U","NORAD_CAT_ID":49115,"ELEMENT_SET_NO":999,"REV_AT_EPOCH":379,"BSTAR":0,"MEAN_MOTION_DOT":-2.38e-6,"MEAN_MOTION_DDOT":0},{"OBJECT_NAME":"CHINASAT 9B","OBJECT_ID":"2021-080A","EPOCH":"2022-08-18T21:07:11.527392","MEAN_MOTION":1.00269525,"ECCENTRICITY":0.0003101,"INCLINATION":0.016,"RA_OF_ASC_NODE":185.509,"ARG_OF_PERICENTER":336.6701,"MEAN_ANOMALY":223.1923,"EPHEMERIS_TYPE":0,"CLASSIFICATION_TYPE":"U","NORAD_CAT_ID":49125,"ELEMENT_SET_NO":999,"REV_AT_EPOCH":361,"BSTAR":0,"MEAN_MOTION_DOT":-3.19e-6,"MEAN_MOTION_DDOT":0},{"OBJECT_NAME":"SES-17","OBJECT_ID":"2021-095A","EPOCH":"2022-08-18T20:13:40.179360","MEAN_MOTION":1.00270934,"ECCENTRICITY":0.0001052,"INCLINATION":0.0134,"RA_OF_ASC_NODE":110.1189,"ARG_OF_PERICENTER":46.1876,"MEAN_ANOMALY":47.1766,"EPHEMERIS_TYPE":0,"CLASSIFICATION_TYPE":"U","NORAD_CAT_ID":49332,"ELEMENT_SET_NO":999,"REV_AT_EPOCH":382,"BSTAR":0,"MEAN_MOTION_DOT":-2.79e-6,"MEAN_MOTION_DDOT":0},{"OBJECT_NAME":"SYRACUSE 4A","OBJECT_ID":"2021-095B","EPOCH":"2022-08-19T01:55:53.588640","MEAN_MOTION":1.00270945,"ECCENTRICITY":0.0001571,"INCLINATION":0.0175,"RA_OF_ASC_NODE":112.4792,"ARG_OF_PERICENTER":32.4494,"MEAN_ANOMALY":256.9463,"EPHEMERIS_TYPE":0,"CLASSIFICATION_TYPE":"U","NORAD_CAT_ID":49333,"ELEMENT_SET_NO":999,"REV_AT_EPOCH":397,"BSTAR":0,"MEAN_MOTION_DOT":1.29e-6,"MEAN_MOTION_DDOT":0},{"OBJECT_NAME":"CHINASAT 1D (ZX 1D)","OBJECT_ID":"2021-114A","EPOCH":"2022-08-18T21:10:18.064128","MEAN_MOTION":1.00272826,"ECCENTRICITY":0.0002154,"INCLINATION":1.3201,"RA_OF_ASC_NODE":278.4268,"ARG_OF_PERICENTER":231.7532,"MEAN_ANOMALY":264.7325,"EPHEMERIS_TYPE":0,"CLASSIFICATION_TYPE":"U","NORAD_CAT_ID":49505,"ELEMENT_SET_NO":999,"REV_AT_EPOCH":281,"BSTAR":0,"MEAN_MOTION_DOT":-3.42e-6,"MEAN_MOTION_DDOT":0},{"OBJECT_NAME":"STPSAT-6","OBJECT_ID":"2021-118A","EPOCH":"2022-08-18T15:14:38.078880","MEAN_MOTION":1.00273018,"ECCENTRICITY":7.0e-5,"INCLINATION":0.0358,"RA_OF_ASC_NODE":280.0955,"ARG_OF_PERICENTER":285.5295,"MEAN_ANOMALY":238.3515,"EPHEMERIS_TYPE":0,"CLASSIFICATION_TYPE":"U","NORAD_CAT_ID":49817,"ELEMENT_SET_NO":999,"REV_AT_EPOCH":253,"BSTAR":0,"MEAN_MOTION_DOT":-5.3e-7,"MEAN_MOTION_DDOT":0},{"OBJECT_NAME":"EXPRESS AMU-7","OBJECT_ID":"2021-123A","EPOCH":"2022-08-19T06:07:01.049664","MEAN_MOTION":1.00271042,"ECCENTRICITY":5.75e-5,"INCLINATION":0.0465,"RA_OF_ASC_NODE":278.5009,"ARG_OF_PERICENTER":20.1958,"MEAN_ANOMALY":265.6223,"EPHEMERIS_TYPE":0,"CLASSIFICATION_TYPE":"U","NORAD_CAT_ID":50001,"ELEMENT_SET_NO":999,"REV_AT_EPOCH":252,"BSTAR":0,"MEAN_MOTION_DOT":-2.49e-6,"MEAN_MOTION_DDOT":0}]